STARLINK-33559          
1 62107U 24220V   26068.45072851  .00024827  00000+0  90821-3 0  9995
2 62107  42.9965 206.9707 0001593 212.7647 147.3106 15.27596264 73156
TEVEL2-7                
1 63238U 25052AE  26068.66113295  .00019244  00000+0  69668-3 0  9998
2 63238  97.4054 324.3041 0008105 124.6830 235.5175 15.28414096 54803
